{"type": "FeatureCollection", "features": [ {"type": "Feature", "properties": {"norad_id": 61182, "name": "GSAT0232 (GALILEO 32)", "group": "gnss", "lat": 49.083804720882085, "lon": -7.080020738301506, "alt_km": 23216.5310298202, "timestamp": "2025-12-23T11:34:48.411091+00:00", "meta": {"OBJECT_NAME": "GSAT0232 (GALILEO 32)", "OBJECT_ID": "2024-167A", "EPOCH": "2025-12-22T11:14:58.318656", "MEAN_MOTION": 1.70473576, "ECCENTRICITY": 0.00018839, "INCLINATION": 55.2381, "RA_OF_ASC_NODE": 226.1639, "ARG_OF_PERICENTER": 204.0949, "MEAN_ANOMALY": 6.8996, "EPHEMERIS_TYPE": 0, "CLASSIFICATION_TYPE": "U", "NORAD_CAT_ID": 61182, "ELEMENT_SET_NO": 999, "REV_AT_EPOCH": 786, "BSTAR": 0, "MEAN_MOTION_DOT": 7.4e-07, "MEAN_MOTION_DDOT": 0}, "tle": {"line1": "1 61182U 24167A   25356.46873054  .00000074  00000+0  00000+0 0  9995", "line2": "2 61182  55.2381 226.1639 0001883 204.0949   6.8996  1.70473576  7860"}}, "geometry": {"type": "Point", "coordinates": [-7.080020738301506, 49.083804720882085]}}, {"type": "Feature", "properties": {"norad_id": 61183, "name": "GSAT0226 (GALILEO 31)", "group": "gnss", "lat": -36.06620606282182, "lon": 76.53506857692068, "alt_km": 23228.257953331282, "timestamp": "2025-12-23T11:34:48.411103+00:00", "meta": {"OBJECT_NAME": "GSAT0226 (GALILEO 31)", "OBJECT_ID": "2024-167B", "EPOCH": "2025-12-22T05:43:25.937760", "MEAN_MOTION": 1.70473707, "ECCENTRICITY": 0.00011776, "INCLINATION": 55.2367, "RA_OF_ASC_NODE": 226.1757, "ARG_OF_PERICENTER": 107.8451, "MEAN_ANOMALY": 74.5096, "EPHEMERIS_TYPE": 0, "CLASSIFICATION_TYPE": "U", "NORAD_CAT_ID": 61183, "ELEMENT_SET_NO": 999, "REV_AT_EPOCH": 783, "BSTAR": 0, "MEAN_MOTION_DOT": 7.4e-07, "MEAN_MOTION_DDOT": 0}, "tle": {"line1": "1 61183U 24167B   25356.23849465  .00000074  00000+0  00000+0 0  9990", "line2": "2 61183  55.2367 226.1757 0001177 107.8451  74.5096  1.70473707  7836"}}, "geometry": {"type": "Point", "coordinates": [76.53506857692068, -36.06620606282182]}}, {"type": "Feature", "properties": {"norad_id": 61186, "name": "BEIDOU-3 M25 (C47)", "group": "gnss", "lat": 53.989482134979234, "lon": 50.86040747156935, "alt_km": 21535.89999897951, "timestamp": "2025-12-23T11:34:48.411115+00:00", "meta": {"OBJECT_NAME": "BEIDOU-3 M25 (C47)", "OBJECT_ID": "2024-168B", "EPOCH": "2025-12-22T12:27:11.391840", "MEAN_MOTION": 1.86230177, "ECCENTRICITY": 0.0005446, "INCLINATION": 54.6334, "RA_OF_ASC_NODE": 308.3821, "ARG_OF_PERICENTER": 299.7491, "MEAN_ANOMALY": 231.473, "EPHEMERIS_TYPE": 0, "CLASSIFICATION_TYPE": "U", "NORAD_CAT_ID": 61186, "ELEMENT_SET_NO": 999, "REV_AT_EPOCH": 849, "BSTAR": 0, "MEAN_MOTION_DOT": -5.7e-07, "MEAN_MOTION_DDOT": 0}, "tle": {"line1": "1 61186U 24168B   25356.51888185 -.00000057  00000+0  00000+0 0  9999", "line2": "2 61186  54.6334 308.3821 0005446 299.7491 231.4730  1.86230177  8490"}}, "geometry": {"type": "Point", "coordinates": [50.86040747156935, 53.989482134979234]}}, {"type": "Feature", "properties": {"norad_id": 61187, "name": "BEIDOU-3 M27 (C49)", "group": "gnss", "lat": -40.14520424079355, "lon": 165.07617696291595, "alt_km": 21535.122714233454, "timestamp": "2025-12-23T11:34:48.411126+00:00", "meta": {"OBJECT_NAME": "BEIDOU-3 M27 (C49)", "OBJECT_ID": "2024-168C", "EPOCH": "2025-12-22T20:59:38.843232", "MEAN_MOTION": 1.8623031, "ECCENTRICITY": 0.0002551, "INCLINATION": 54.6286, "RA_OF_ASC_NODE": 308.3534, "ARG_OF_PERICENTER": 340.6202, "MEAN_ANOMALY": 204.1443, "EPHEMERIS_TYPE": 0, "CLASSIFICATION_TYPE": "U", "NORAD_CAT_ID": 61187, "ELEMENT_SET_NO": 999, "REV_AT_EPOCH": 597, "BSTAR": 0, "MEAN_MOTION_DOT": -5.6e-07, "MEAN_MOTION_DDOT": 0}, "tle": {"line1": "1 61187U 24168C   25356.87475513 -.00000056  00000+0  00000+0 0  9995", "line2": "2 61187  54.6286 308.3534 0002551 340.6202 204.1443  1.86230310  5975"}}, "geometry": {"type": "Point", "coordinates": [165.07617696291595, -40.14520424079355]}}, {"type": "Feature", "properties": {"norad_id": 62339, "name": "GPS BIII-7  (PRN 01)", "group": "gnss", "lat": 54.17308657738965, "lon": 84.59385922675017, "alt_km": 20187.975946552393, "timestamp": "2025-12-23T11:34:48.411138+00:00", "meta": {"OBJECT_NAME": "GPS BIII-7  (PRN 01)", "OBJECT_ID": "2024-242A", "EPOCH": "2025-12-22T12:02:33.556992", "MEAN_MOTION": 2.00568132, "ECCENTRICITY": 0.00128077, "INCLINATION": 54.9208, "RA_OF_ASC_NODE": 341.3454, "ARG_OF_PERICENTER": 346.2078, "MEAN_ANOMALY": 123.2241, "EPHEMERIS_TYPE": 0, "CLASSIFICATION_TYPE": "U", "NORAD_CAT_ID": 62339, "ELEMENT_SET_NO": 999, "REV_AT_EPOCH": 771, "BSTAR": 0, "MEAN_MOTION_DOT": -6.9e-07, "MEAN_MOTION_DDOT": 0}, "tle": {"line1": "1 62339U 24242A   25356.50177728 -.00000069  00000+0  00000+0 0  9999", "line2": "2 62339  54.9208 341.3454 0012807 346.2078 123.2241  2.00568132  7712"}}, "geometry": {"type": "Point", "coordinates": [84.59385922675017, 54.17308657738965]}}, {"type": "Feature", "properties": {"norad_id": 62850, "name": "NVS-02 (IRNSS-1K)", "group": "gnss", "lat": -18.255200541343406, "lon": -156.82479909166418, "alt_km": 26658.037374609466, "timestamp": "2025-12-23T11:34:48.411148+00:00", "meta": {"OBJECT_NAME": "NVS-02 (IRNSS-1K)", "OBJECT_ID": "2025-020A", "EPOCH": "2025-12-22T04:45:05.885856", "MEAN_MOTION": 2.17601308, "ECCENTRICITY": 0.73473359, "INCLINATION": 20.961, "RA_OF_ASC_NODE": 324.2351, "ARG_OF_PERICENTER": 32.365, "MEAN_ANOMALY": 356.4574, "EPHEMERIS_TYPE": 0, "CLASSIFICATION_TYPE": "U", "NORAD_CAT_ID": 62850, "ELEMENT_SET_NO": 999, "REV_AT_EPOCH": 712, "BSTAR": 0.00023462008, "MEAN_MOTION_DOT": 1.43e-06, "MEAN_MOTION_DDOT": 0}, "tle": {"line1": "1 62850U 25020A   25356.19798479  .00000143  00000+0  23462-3 0  9992", "line2": "2 62850  20.9610 324.2351 7347335  32.3650 356.4574  2.17601308  7124"}}, "geometry": {"type": "Point", "coordinates": [-156.82479909166418, -18.255200541343406]}}, {"type": "Feature", "properties": {"norad_id": 62876, "name": "QZS-6 (QZSS/PRN 200)", "group": "gnss", "lat": -0.057565413209345766, "lon": -3.470522612451202, "alt_km": 35784.65775370497, "timestamp": "2025-12-23T11:34:48.411159+00:00", "meta": {"OBJECT_NAME": "QZS-6 (QZSS/PRN 200)", "OBJECT_ID": "2025-023A", "EPOCH": "2025-12-22T22:09:17.775360", "MEAN_MOTION": 1.00271462, "ECCENTRICITY": 0.00015575, "INCLINATION": 0.0542, "RA_OF_ASC_NODE": 72.0389, "ARG_OF_PERICENTER": 208.3072, "MEAN_ANOMALY": 234.2443, "EPHEMERIS_TYPE": 0, "CLASSIFICATION_TYPE": "U", "NORAD_CAT_ID": 62876, "ELEMENT_SET_NO": 999, "REV_AT_EPOCH": 319, "BSTAR": 0, "MEAN_MOTION_DOT": -2.12e-06, "MEAN_MOTION_DDOT": 0}, "tle": {"line1": "1 62876U 25023A   25356.92312240 -.00000212  00000+0  00000+0 0  9999", "line2": "2 62876   0.0542  72.0389 0001557 208.3072 234.2443  1.00271462  3199"}}, "geometry": {"type": "Point", "coordinates": [-3.470522612451202, -0.057565413209345766]}}, {"type": "Feature", "properties": {"norad_id": 63130, "name": "COSMOS 2584 (704K)", "group": "gnss", "lat": -52.2534417214156, "lon": -64.17534085535415, "alt_km": 19117.26055406488, "timestamp": "2025-12-23T11:34:48.411169+00:00", "meta": {"OBJECT_NAME": "COSMOS 2584 (704K)", "OBJECT_ID": "2025-042A", "EPOCH": "2025-12-22T05:31:29.288640", "MEAN_MOTION": 2.1310305, "ECCENTRICITY": 0.00077501, "INCLINATION": 64.9809, "RA_OF_ASC_NODE": 78.8228, "ARG_OF_PERICENTER": 219.7586, "MEAN_ANOMALY": 140.2275, "EPHEMERIS_TYPE": 0, "CLASSIFICATION_TYPE": "U", "NORAD_CAT_ID": 63130, "ELEMENT_SET_NO": 999, "REV_AT_EPOCH": 627, "BSTAR": 0, "MEAN_MOTION_DOT": -4e-08, "MEAN_MOTION_DDOT": 0}, "tle": {"line1": "1 63130U 25042A   25356.23020010 -.00000004  00000+0  00000+0 0  9998", "line2": "2 63130  64.9809  78.8228 0007750 219.7586 140.2275  2.13103050  6274"}}, "geometry": {"type": "Point", "coordinates": [-64.17534085535415, -52.2534417214156]}}, {"type": "Feature", "properties": {"norad_id": 64202, "name": "GPS BIII-8  (PRN 21)", "group": "gnss", "lat": -51.81488886938011, "lon": -24.230970571769465, "alt_km": 20174.09830096175, "timestamp": "2025-12-23T11:34:48.411179+00:00", "meta": {"OBJECT_NAME": "GPS BIII-8  (PRN 21)", "OBJECT_ID": "2025-116A", "EPOCH": "2025-12-22T08:06:38.435904", "MEAN_MOTION": 2.0055774, "ECCENTRICITY": 0.00058811, "INCLINATION": 55.1123, "RA_OF_ASC_NODE": 38.2538, "ARG_OF_PERICENTER": 310.2998, "MEAN_ANOMALY": 229.9806, "EPHEMERIS_TYPE": 0, "CLASSIFICATION_TYPE": "U", "NORAD_CAT_ID": 64202, "ELEMENT_SET_NO": 999, "REV_AT_EPOCH": 432, "BSTAR": 0, "MEAN_MOTION_DOT": -5.2e-07, "MEAN_MOTION_DDOT": 0}, "tle": {"line1": "1 64202U 25116A   25356.33794486 -.00000052  00000+0  00000+0 0  9990", "line2": "2 64202  55.1123  38.2538 0005881 310.2998 229.9806  2.00557740  4321"}}, "geometry": {"type": "Point", "coordinates": [-24.230970571769465, -51.81488886938011]}}, {"type": "Feature", "properties": {"norad_id": 65590, "name": "COSMOS 2596 (708K)", "group": "gnss", "lat": -0.7074659422625739, "lon": -39.24836722106837, "alt_km": 19108.405629695822, "timestamp": "2025-12-23T11:34:48.411189+00:00", "meta": {"OBJECT_NAME": "COSMOS 2596 (708K)", "OBJECT_ID": "2025-206B", "EPOCH": "2025-12-23T03:22:08.901120", "MEAN_MOTION": 2.13100363, "ECCENTRICITY": 0.0014093, "INCLINATION": 64.7387, "RA_OF_ASC_NODE": 321.1139, "ARG_OF_PERICENTER": 307.3847, "MEAN_ANOMALY": 149.2418, "EPHEMERIS_TYPE": 0, "CLASSIFICATION_TYPE": "U", "NORAD_CAT_ID": 65590, "ELEMENT_SET_NO": 999, "REV_AT_EPOCH": 216, "BSTAR": 0, "MEAN_MOTION_DOT": -3.8e-07, "MEAN_MOTION_DDOT": 0}, "tle": {"line1": "1 65590U 25206B   25357.14038080 -.00000038  00000+0  00000+0 0  9996", "line2": "2 65590  64.7387 321.1139 0014093 307.3847 149.2418  2.13100363  2168"}}, "geometry": {"type": "Point", "coordinates": [-39.24836722106837, -0.7074659422625739]}}]}